[{"OBJECT_NAME":"STARLINK-6209","OBJECT_ID":"2023-083B","EPOCH":"2026-03-09T09:38:15.697248","MEAN_MOTION":15.02533741,"ECCENTRICITY":0.00012814,"INCLINATION":43.0042,"RA_OF_ASC_NODE":83.6363,"ARG_OF_PERICENTER":266.0049,"MEAN_ANOMALY":94.0647,"EPHEMERIS_TYPE":0,"CLASSIFICATION_TYPE":"U","NORAD_CAT_ID":56877,"ELEMENT_SET_NO":999,"REV_AT_EPOCH":15162,"BSTAR":2.0343276e-5,"MEAN_MOTION_DOT":7.1e-7,"MEAN_MOTION_DDOT":0},{"OBJECT_NAME":"KORSAT-7","OBJECT_ID":"2023-185B","EPOCH":"2026-03-09T23:44:55.136256","MEAN_MOTION":15.00898391,"ECCENTRICITY":0.00224341,"INCLINATION":97.6243,"RA_OF_ASC_NODE":135.089,"ARG_OF_PERICENTER":307.6562,"MEAN_ANOMALY":52.2627,"EPHEMERIS_TYPE":0,"CLASSIFICATION_TYPE":"U","NORAD_CAT_ID":58463,"ELEMENT_SET_NO":999,"REV_AT_EPOCH":12440,"BSTAR":0.00023536002,"MEAN_MOTION_DOT":2.951e-5,"MEAN_MOTION_DDOT":0}]
